CAS500-2 RIDESHARE OBJE*
1 68990U 26100L   26129.70855320  .00001007  00000+0  10785-3 0  9992
2 68990  97.7347  27.8729 0003866 302.0856  57.9987 14.90852995   965
