{
  "norad_id": 68990,
  "name": "CAS500-2 RIDESHARE OBJECT L",
  "history": [
    {
      "epoch": "2026-05-09T17:00:18.995616Z",
      "apogee_km": 597.9704149052732,
      "perigee_km": 592.5785731380965,
      "latitude_deg": 3.712061925998282e-05,
      "longitude_deg": -94.72850170645901,
      "height_km": 596.8874222302823,
      "semi_major_axis_km": 6973.411494021685,
      "eccentricity": 0.0003866,
      "inclination_deg": 97.7347,
      "raan_deg": 27.8729,
      "arg_perigee_deg": 302.0856,
      "mean_anomaly_deg": 57.9987,
      "mean_motion_rev_day": 14.90852995
    }
  ]
}